[
  {
    "OBJECT_NAME": "STARLINK-32897",
    "OBJECT_ID": "25029V",
    "EPOCH": "2025-11-11T07:15:26.157312",
    "MEAN_MOTION": 15.30240709,
    "ECCENTRICITY": 0.0002278,
    "INCLINATION": 53.1592,
    "RA_OF_ASC_NODE": 62.2309,
    "ARG_OF_PERICENTER": 78.8065,
    "MEAN_ANOMALY": 281.3192,
    "EPHEMERIS_TYPE": 0,
    "CLASSIFICATION_TYPE": "U",
    "NORAD_CAT_ID": 62967,
    "ELEMENT_SET_NO": 999,
    "REV_AT_EPOCH": 4319,
    "BSTAR": 0.0019486999999999998,
    "MEAN_MOTION_DOT": 0.00057882,
    "MEAN_MOTION_DDOT": 0.0,
    "TLE_LINE1": "1 62967U 25029V   25315.30238608  .00057882  00000+0  19487-2 0  9994",
    "TLE_LINE2": "2 62967  53.1592  62.2309 0002278  78.8065 281.3192 15.30240709 43196",
    "COMMENT": "Grouped by shell and plane from TLE"
  },
  {
    "OBJECT_NAME": "STARLINK-32863",
    "OBJECT_ID": "25029W",
    "EPOCH": "2025-11-11T06:14:48.800256",
    "MEAN_MOTION": 15.30206043,
    "ECCENTRICITY": 0.0001294,
    "INCLINATION": 53.1593,
    "RA_OF_ASC_NODE": 62.6826,
    "ARG_OF_PERICENTER": 79.8156,
    "MEAN_ANOMALY": 280.2991,
    "EPHEMERIS_TYPE": 0,
    "CLASSIFICATION_TYPE": "U",
    "NORAD_CAT_ID": 62968,
    "ELEMENT_SET_NO": 999,
    "REV_AT_EPOCH": 4232,
    "BSTAR": 0.0013791,
    "MEAN_MOTION_DOT": 0.00040717,
    "MEAN_MOTION_DDOT": 0.0,
    "TLE_LINE1": "1 62968U 25029W   25315.26028704  .00040717  00000+0  13791-2 0  9995",
    "TLE_LINE2": "2 62968  53.1593  62.6826 0001294  79.8156 280.2991 15.30206043 42327",
    "COMMENT": "Grouped by shell and plane from TLE"
  },
  {
    "OBJECT_NAME": "STARLINK-32894",
    "OBJECT_ID": "25029X",
    "EPOCH": "2025-11-11T07:06:19.082016",
    "MEAN_MOTION": 15.30233735,
    "ECCENTRICITY": 0.0001962,
    "INCLINATION": 53.1576,
    "RA_OF_ASC_NODE": 62.1917,
    "ARG_OF_PERICENTER": 82.08,
    "MEAN_ANOMALY": 278.0424,
    "EPHEMERIS_TYPE": 0,
    "CLASSIFICATION_TYPE": "U",
    "NORAD_CAT_ID": 62969,
    "ELEMENT_SET_NO": 999,
    "REV_AT_EPOCH": 4319,
    "BSTAR": 0.001661,
    "MEAN_MOTION_DOT": 0.00049213,
    "MEAN_MOTION_DDOT": 0.0,
    "TLE_LINE1": "1 62969U 25029X   25315.29605419  .00049213  00000+0  16610-2 0  9996",
    "TLE_LINE2": "2 62969  53.1576  62.1917 0001962  82.0800 278.0424 15.30233735 43199",
    "COMMENT": "Grouped by shell and plane from TLE"
  },
  {
    "OBJECT_NAME": "STARLINK-32826",
    "OBJECT_ID": "25029Y",
    "EPOCH": "2025-11-11T06:57:12.093120",
    "MEAN_MOTION": 15.30233632,
    "ECCENTRICITY": 0.0002228,
    "INCLINATION": 53.1604,
    "RA_OF_ASC_NODE": 62.1524,
    "ARG_OF_PERICENTER": 89.7241,
    "MEAN_ANOMALY": 270.4015,
    "EPHEMERIS_TYPE": 0,
    "CLASSIFICATION_TYPE": "U",
    "NORAD_CAT_ID": 62970,
    "ELEMENT_SET_NO": 999,
    "REV_AT_EPOCH": 4319,
    "BSTAR": 0.0016451,
    "MEAN_MOTION_DOT": 0.00048736,
    "MEAN_MOTION_DDOT": 0.0,
    "TLE_LINE1": "1 62970U 25029Y   25315.28972330  .00048736  00000+0  16451-2 0  9998",
    "TLE_LINE2": "2 62970  53.1604  62.1524 0002228  89.7241 270.4015 15.30233632 43194",
    "COMMENT": "Grouped by shell and plane from TLE"
  },
  {
    "OBJECT_NAME": "STARLINK-33692",
    "OBJECT_ID": "25065K",
    "EPOCH": "2025-11-11T00:00:16.893792",
    "MEAN_MOTION": 15.27619414,
    "ECCENTRICITY": 0.0002065,
    "INCLINATION": 43.0023,
    "RA_OF_ASC_NODE": 61.1983,
    "ARG_OF_PERICENTER": 285.0577,
    "MEAN_ANOMALY": 75.0046,
    "EPHEMERIS_TYPE": 0,
    "CLASSIFICATION_TYPE": "U",
    "NORAD_CAT_ID": 63408,
    "ELEMENT_SET_NO": 999,
    "REV_AT_EPOCH": 3464,
    "BSTAR": 0.0020649,
    "MEAN_MOTION_DOT": 0.0005707,
    "MEAN_MOTION_DDOT": 0.0,
    "TLE_LINE1": "1 63408U 25065K   25315.00019553  .00057070  00000+0  20649-2 0  9999",
    "TLE_LINE2": "2 63408  43.0023  61.1983 0002065 285.0577  75.0046 15.27619414 34649",
    "COMMENT": "Grouped by shell and plane from TLE"
  },
  {
    "OBJECT_NAME": "STARLINK-33647",
    "OBJECT_ID": "25065N",
    "EPOCH": "2025-11-11T06:38:25.265184",
    "MEAN_MOTION": 15.27581898,
    "ECCENTRICITY": 0.0001027,
    "INCLINATION": 43.0008,
    "RA_OF_ASC_NODE": 63.3031,
    "ARG_OF_PERICENTER": 295.7606,
    "MEAN_ANOMALY": 64.314,
    "EPHEMERIS_TYPE": 0,
    "CLASSIFICATION_TYPE": "U",
    "NORAD_CAT_ID": 63411,
    "ELEMENT_SET_NO": 999,
    "REV_AT_EPOCH": 3464,
    "BSTAR": 0.00047726,
    "MEAN_MOTION_DOT": 0.00012895,
    "MEAN_MOTION_DDOT": 0.0,
    "TLE_LINE1": "1 63411U 25065N   25315.27668131  .00012895  00000+0  47726-3 0  9996",
    "TLE_LINE2": "2 63411  43.0008  63.3031 0001027 295.7606  64.3140 15.27581898 34642",
    "COMMENT": "Grouped by shell and plane from TLE"
  },
  {
    "OBJECT_NAME": "STARLINK-33645",
    "OBJECT_ID": "25065P",
    "EPOCH": "2025-11-11T00:35:13.072704",
    "MEAN_MOTION": 15.27602616,
    "ECCENTRICITY": 8.43e-05,
    "INCLINATION": 43.0049,
    "RA_OF_ASC_NODE": 60.4484,
    "ARG_OF_PERICENTER": 295.1259,
    "MEAN_ANOMALY": 64.9506,
    "EPHEMERIS_TYPE": 0,
    "CLASSIFICATION_TYPE": "U",
    "NORAD_CAT_ID": 63412,
    "ELEMENT_SET_NO": 999,
    "REV_AT_EPOCH": 3465,
    "BSTAR": 0.00060326,
    "MEAN_MOTION_DOT": 0.00016386,
    "MEAN_MOTION_DDOT": 0.0,
    "TLE_LINE1": "1 63412U 25065P   25315.02445686  .00016386  00000+0  60326-3 0  9998",
    "TLE_LINE2": "2 63412  43.0049  60.4484 0000843 295.1259  64.9506 15.27602616 34656",
    "COMMENT": "Grouped by shell and plane from TLE"
  },
  {
    "OBJECT_NAME": "STARLINK-34223",
    "OBJECT_ID": "25124V",
    "EPOCH": "2025-11-11T00:15:32.135040",
    "MEAN_MOTION": 15.2759554,
    "ECCENTRICITY": 7.05e-05,
    "INCLINATION": 43.0,
    "RA_OF_ASC_NODE": 68.1662,
    "ARG_OF_PERICENTER": 279.077,
    "MEAN_ANOMALY": 81.0002,
    "EPHEMERIS_TYPE": 0,
    "CLASSIFICATION_TYPE": "U",
    "NORAD_CAT_ID": 64336,
    "ELEMENT_SET_NO": 999,
    "REV_AT_EPOCH": 2367,
    "BSTAR": 0.0012343999999999999,
    "MEAN_MOTION_DOT": 0.00033879,
    "MEAN_MOTION_DDOT": 0.0,
    "TLE_LINE1": "1 64336U 25124V   25315.01078860  .00033879  00000+0  12344-2 0  9997",
    "TLE_LINE2": "2 64336  43.0000  68.1662 0000705 279.0770  81.0002 15.27595540 23676",
    "COMMENT": "Grouped by shell and plane from TLE"
  },
  {
    "OBJECT_NAME": "STARLINK-34218",
    "OBJECT_ID": "25124X",
    "EPOCH": "2025-11-11T00:32:12.119136",
    "MEAN_MOTION": 15.27592808,
    "ECCENTRICITY": 5.78e-05,
    "INCLINATION": 43.0024,
    "RA_OF_ASC_NODE": 68.2567,
    "ARG_OF_PERICENTER": 300.2708,
    "MEAN_ANOMALY": 59.8086,
    "EPHEMERIS_TYPE": 0,
    "CLASSIFICATION_TYPE": "U",
    "NORAD_CAT_ID": 64338,
    "ELEMENT_SET_NO": 999,
    "REV_AT_EPOCH": 2367,
    "BSTAR": 0.0020142,
    "MEAN_MOTION_DOT": 0.00055605,
    "MEAN_MOTION_DDOT": 0.0,
    "TLE_LINE1": "1 64338U 25124X   25315.02236249  .00055605  00000+0  20142-2 0  9993",
    "TLE_LINE2": "2 64338  43.0024  68.2567 0000578 300.2708  59.8086 15.27592808 23674",
    "COMMENT": "Grouped by shell and plane from TLE"
  },
  {
    "OBJECT_NAME": "STARLINK-34609",
    "OBJECT_ID": "25147P",
    "EPOCH": "2025-11-11T06:58:21.463680",
    "MEAN_MOTION": 15.39689048,
    "ECCENTRICITY": 0.0002916,
    "INCLINATION": 53.1556,
    "RA_OF_ASC_NODE": 67.0769,
    "ARG_OF_PERICENTER": 73.2969,
    "MEAN_ANOMALY": 286.8356,
    "EPHEMERIS_TYPE": 0,
    "CLASSIFICATION_TYPE": "U",
    "NORAD_CAT_ID": 64768,
    "ELEMENT_SET_NO": 999,
    "REV_AT_EPOCH": 2070,
    "BSTAR": 0.0019349,
    "MEAN_MOTION_DOT": 0.00077972,
    "MEAN_MOTION_DDOT": 0.0,
    "TLE_LINE1": "1 64768U 25147P   25315.29052620  .00077972  00000+0  19349-2 0  9991",
    "TLE_LINE2": "2 64768  53.1556  67.0769 0002916  73.2969 286.8356 15.39689048 20707",
    "COMMENT": "Grouped by shell and plane from TLE"
  },
  {
    "OBJECT_NAME": "STARLINK-34830",
    "OBJECT_ID": "25192B",
    "EPOCH": "2025-11-11T07:19:52.321152",
    "MEAN_MOTION": 15.39682901,
    "ECCENTRICITY": 0.0002693,
    "INCLINATION": 53.1565,
    "RA_OF_ASC_NODE": 69.728,
    "ARG_OF_PERICENTER": 75.3548,
    "MEAN_ANOMALY": 284.7755,
    "EPHEMERIS_TYPE": 0,
    "CLASSIFICATION_TYPE": "U",
    "NORAD_CAT_ID": 65405,
    "ELEMENT_SET_NO": 999,
    "REV_AT_EPOCH": 1116,
    "BSTAR": 0.0020025999999999998,
    "MEAN_MOTION_DOT": 0.00080726,
    "MEAN_MOTION_DDOT": 0.0,
    "TLE_LINE1": "1 65405U 25192B   25315.30546668  .00080726  00000+0  20026-2 0  9997",
    "TLE_LINE2": "2 65405  53.1565  69.7280 0002693  75.3548 284.7755 15.39682901 11162",
    "COMMENT": "Grouped by shell and plane from TLE"
  },
  {
    "OBJECT_NAME": "STARLINK-35008",
    "OBJECT_ID": "25192E",
    "EPOCH": "2025-11-11T07:46:37.973568",
    "MEAN_MOTION": 15.39638423,
    "ECCENTRICITY": 0.000232,
    "INCLINATION": 53.1582,
    "RA_OF_ASC_NODE": 69.8441,
    "ARG_OF_PERICENTER": 88.3361,
    "MEAN_ANOMALY": 271.791,
    "EPHEMERIS_TYPE": 0,
    "CLASSIFICATION_TYPE": "U",
    "NORAD_CAT_ID": 65408,
    "ELEMENT_SET_NO": 999,
    "REV_AT_EPOCH": 1115,
    "BSTAR": 0.0016393,
    "MEAN_MOTION_DOT": 0.00065782,
    "MEAN_MOTION_DDOT": 0.0,
    "TLE_LINE1": "1 65408U 25192E   25315.32405062  .00065782  00000+0  16393-2 0  9991",
    "TLE_LINE2": "2 65408  53.1582  69.8441 0002320  88.3361 271.7910 15.39638423 11156",
    "COMMENT": "Grouped by shell and plane from TLE"
  },
  {
    "OBJECT_NAME": "STARLINK-35022",
    "OBJECT_ID": "25192F",
    "EPOCH": "2025-11-11T07:26:33.396000",
    "MEAN_MOTION": 15.39685938,
    "ECCENTRICITY": 0.000287,
    "INCLINATION": 53.1591,
    "RA_OF_ASC_NODE": 69.7567,
    "ARG_OF_PERICENTER": 70.9444,
    "MEAN_ANOMALY": 289.1872,
    "EPHEMERIS_TYPE": 0,
    "CLASSIFICATION_TYPE": "U",
    "NORAD_CAT_ID": 65409,
    "ELEMENT_SET_NO": 999,
    "REV_AT_EPOCH": 1115,
    "BSTAR": 0.002042,
    "MEAN_MOTION_DOT": 0.00082351,
    "MEAN_MOTION_DDOT": 0.0,
    "TLE_LINE1": "1 65409U 25192F   25315.31010875  .00082351  00000+0  20420-2 0  9992",
    "TLE_LINE2": "2 65409  53.1591  69.7567 0002870  70.9444 289.1872 15.39685938 11157",
    "COMMENT": "Grouped by shell and plane from TLE"
  }
]